[{"OBJECT_NAME":"AL MUNTHER","OBJECT_ID":"2025-052AG","EPOCH":"2026-03-09T15:29:23.207136","MEAN_MOTION":15.28381521,"ECCENTRICITY":0.0008027,"INCLINATION":97.4001,"RA_OF_ASC_NODE":323.9152,"ARG_OF_PERICENTER":130.7043,"MEAN_ANOMALY":229.4895,"EPHEMERIS_TYPE":0,"CLASSIFICATION_TYPE":"U","NORAD_CAT_ID":63240,"ELEMENT_SET_NO":999,"REV_AT_EPOCH":5479,"BSTAR":0.00065015,"MEAN_MOTION_DOT":0.00017933,"MEAN_MOTION_DDOT":0},{"OBJECT_NAME":"STARLINK-34028","OBJECT_ID":"2025-099X","EPOCH":"2026-03-09T08:42:01.248480","MEAN_MOTION":15.2758915,"ECCENTRICITY":0.0001832,"INCLINATION":43.0007,"RA_OF_ASC_NODE":174.8226,"ARG_OF_PERICENTER":273.304,"MEAN_ANOMALY":86.7602,"EPHEMERIS_TYPE":0,"CLASSIFICATION_TYPE":"U","NORAD_CAT_ID":63973,"ELEMENT_SET_NO":999,"REV_AT_EPOCH":4732,"BSTAR":0.00095511233,"MEAN_MOTION_DOT":0.00026121,"MEAN_MOTION_DDOT":0}]
